QIANFAN-17              
1 60395U 24140S   26023.58022364  .00000207  00000+0  30139-3 0  9994
2 60395  88.9787 295.1161 0016750  83.8683 276.4376 13.50988523 73786
QIANFAN-18              
1 60396U 24140T   26023.55962828  .00000217  00000+0  31643-3 0  9992
2 60396  88.9779 294.6489 0016108  68.4574 291.8293 13.50988483 73177
QIANFAN-19              
1 61552U 24185A   26023.61037756  .00000755  00000+0  38778-3 0  9999
2 61552  88.9780  73.1444 0007909 154.2937 205.8644 14.14345280 75586
QIANFAN-20              
1 61553U 24185B   26023.59175162  .00000664  00000+0  37669-3 0  9998
2 61553  88.9778  73.5126 0005395 186.6699 173.4414 14.08890852 75382
QIANFAN-21              
1 61554U 24185C   26023.60089500  .00001021  00000+0  44978-3 0  9990
2 61554  88.9696  72.0769 0009279 216.1962 143.8602 14.22672732 75927
QIANFAN-22              
1 61555U 24185D   26023.58096727  .00000270  00000+0  22236-3 0  9995
2 61555  88.9764  74.6635 0005326 210.8600 149.2259 13.86320904 74739
QIANFAN-23              
1 61556U 24185E   26023.59747060  .00000894  00000+0  44340-3 0  9992
2 61556  88.9772  72.9357 0008165 165.7652 194.3767 14.16342209 75675
QIANFAN-24              
1 61557U 24185F   26023.56831241  .00000896  00000+0  38498-3 0  9994
2 61557  88.9755  72.2755 0010600 150.6387 209.5403 14.23871895 75972
